{
    "links": {
        "self": "http://www.neowsapp.com/rest/v1/neo/3667474?api_key=iIulBulltgU6a56xZRHN4H3l9WmuAYTsLGpBGhQ2"
    },
    "id": "3667474",
    "neo_reference_id": "3667474",
    "name": "(2014 GV48)",
    "designation": "2014 GV48",
    "nasa_jpl_url": "http://ssd.jpl.nasa.gov/sbdb.cgi?sstr=3667474",
    "absolute_magnitude_h": 25.8,
    "estimated_diameter": {
        "kilometers": {
            "estimated_diameter_min": 0.0183888672,
            "estimated_diameter_max": 0.0411187571
        },
        "meters": {
            "estimated_diameter_min": 18.388867207,
            "estimated_diameter_max": 41.1187571041
        },
        "miles": {
            "estimated_diameter_min": 0.0114263088,
            "estimated_diameter_max": 0.0255500032
        },
        "feet": {
            "estimated_diameter_min": 60.3309310875,
            "estimated_diameter_max": 134.9040630575
        }
    },
    "is_potentially_hazardous_asteroid": false,
    "close_approach_data": [
        {
            "close_approach_date": "2009-03-07",
            "close_approach_date_full": "2009-Mar-07 08:47",
            "epoch_date_close_approach": 1236415620000,
            "relative_velocity": {
                "kilometers_per_second": "13.5952232149",
                "kilometers_per_hour": "48942.8035737584",
                "miles_per_hour": "30411.1548094834"
            },
            "miss_distance": {
                "astronomical": "0.3132622119",
                "lunar": "121.8590004291",
                "kilometers": "46863359.651728653",
                "miles": "29119541.3965072914"
            },
            "orbiting_body": "Earth"
        },
        {
            "close_approach_date": "2014-04-13",
            "close_approach_date_full": "2014-Apr-13 11:56",
            "epoch_date_close_approach": 1397390160000,
            "relative_velocity": {
                "kilometers_per_second": "5.4021387045",
                "kilometers_per_hour": "19447.6993361477",
                "miles_per_hour": "12084.0440680635"
            },
            "miss_distance": {
                "astronomical": "0.0541347022",
                "lunar": "21.0583991558",
                "kilometers": "8098436.142204314",
                "miles": "5032134.8755709732"
            },
            "orbiting_body": "Earth"
        },
        {
            "close_approach_date": "2019-05-23",
            "close_approach_date_full": "2019-May-23 08:58",
            "epoch_date_close_approach": 1558601880000,
            "relative_velocity": {
                "kilometers_per_second": "12.7160124714",
                "kilometers_per_hour": "45777.6448970886",
                "miles_per_hour": "28444.4482973049"
            },
            "miss_distance": {
                "astronomical": "0.2760178674",
                "lunar": "107.3709504186",
                "kilometers": "41291685.044982438",
                "miles": "25657463.3345681244"
            },
            "orbiting_body": "Earth"
        }
    ],
    "orbital_data": {
        "orbit_id": "7",
        "orbit_determination_date": "2017-04-06 08:41:36",
        "first_observation_date": "2014-04-09",
        "last_observation_date": "2014-04-21",
        "data_arc_in_days": 12,
        "observations_used": 18,
        "orbit_uncertainty": "7",
        "minimum_orbit_intersection": ".0527137",
        "jupiter_tisserand_invariant": "3.882",
        "epoch_osculation": "2459000.5",
        "eccentricity": ".4306116934325908",
        "semi_major_axis": "1.853763819710868",
        "inclination": "3.724634734656154",
        "ascending_node_longitude": "208.5204920498816",
        "orbital_period": "921.8919642043768",
        "perihelion_distance": "1.055511442081103",
        "perihelion_argument": "353.2558461189722",
        "aphelion_distance": "2.652016197340633",
        "perihelion_time": "2458602.961966531511",
        "mean_anomaly": "155.2391143491178",
        "mean_motion": ".3905012886305955",
        "equinox": "J2000",
        "orbit_class": {
            "orbit_class_type": "AMO",
            "orbit_class_description": "Near-Earth asteroid orbits similar to that of 1221 Amor",
            "orbit_class_range": "1.017 AU < q (perihelion) < 1.3 AU"
        }
    },
    "is_sentry_object": false
}